{
"type": "FeatureCollection",
"name": "meteostations_homogen_Tm_Tn_Tx",
"crs": { "type": "name", "properties": { "name": "urn:ogc:def:crs:OGC:1.3:CRS84" } },
"features": [
{ "type": "Feature", "properties": { "station": "Alushta", "lat": 44.661, "lon": 34.402, "St_UA": "Алушта" }, "geometry": { "type": "Point", "coordinates": [ 34.402, 44.661 ] } },
{ "type": "Feature", "properties": { "station": "Amvrosiivka", "lat": 47.792, "lon": 38.497, "St_UA": "Амвросіївка" }, "geometry": { "type": "Point", "coordinates": [ 38.497, 47.792 ] } },
{ "type": "Feature", "properties": { "station": "Angarsky_perval", "lat": 44.756, "lon": 34.341, "St_UA": "Ангарський перевал" }, "geometry": { "type": "Point", "coordinates": [ 34.341, 44.756 ] } },
{ "type": "Feature", "properties": { "station": "Artemivsk", "lat": 48.557, "lon": 38.015, "St_UA": "Артемівськ" }, "geometry": { "type": "Point", "coordinates": [ 38.015, 48.557 ] } },
{ "type": "Feature", "properties": { "station": "Askaniya-Nova", "lat": 46.451, "lon": 33.88, "St_UA": "Асканія-Нова" }, "geometry": { "type": "Point", "coordinates": [ 33.88, 46.451 ] } },
{ "type": "Feature", "properties": { "station": "Ay-Petri", "lat": 44.469, "lon": 34.069, "St_UA": "Ай-Петрі" }, "geometry": { "type": "Point", "coordinates": [ 34.069, 44.469 ] } },
{ "type": "Feature", "properties": { "station": "Baryshivka", "lat": 50.355, "lon": 31.337, "St_UA": "Баришівка" }, "geometry": { "type": "Point", "coordinates": [ 31.337, 50.355 ] } },
{ "type": "Feature", "properties": { "station": "Bashtanka", "lat": 47.413, "lon": 32.468, "St_UA": "Баштанка" }, "geometry": { "type": "Point", "coordinates": [ 32.468, 47.413 ] } },
{ "type": "Feature", "properties": { "station": "Bekhtery", "lat": 46.243, "lon": 32.283, "St_UA": "Бехтери" }, "geometry": { "type": "Point", "coordinates": [ 32.283, 46.243 ] } },
{ "type": "Feature", "properties": { "station": "Berdyansk (port)", "lat": 46.754, "lon": 36.781, "St_UA": "Бердянськ (порт)" }, "geometry": { "type": "Point", "coordinates": [ 36.781, 46.754 ] } },
{ "type": "Feature", "properties": { "station": "Beregove", "lat": 48.2, "lon": 22.65, "St_UA": "Берегове" }, "geometry": { "type": "Point", "coordinates": [ 22.65, 48.2 ] } },
{ "type": "Feature", "properties": { "station": "Berezhany", "lat": 49.439, "lon": 24.936, "St_UA": "Бережани" }, "geometry": { "type": "Point", "coordinates": [ 24.936, 49.439 ] } },
{ "type": "Feature", "properties": { "station": "Bila_Tserkva", "lat": 49.829, "lon": 30.106, "St_UA": "Біла Церква" }, "geometry": { "type": "Point", "coordinates": [ 30.106, 49.829 ] } },
{ "type": "Feature", "properties": { "station": "Bilgorod-Dnistrovsky", "lat": 46.1824, "lon": 30.3667, "St_UA": "Білгород-Дністровський" }, "geometry": { "type": "Point", "coordinates": [ 30.3667, 46.1824 ] } },
{ "type": "Feature", "properties": { "station": "Bilogirsk", "lat": 45.045, "lon": 34.599, "St_UA": "Білогірськ" }, "geometry": { "type": "Point", "coordinates": [ 34.599, 45.045 ] } },
{ "type": "Feature", "properties": { "station": "Bilopillya", "lat": 49.84, "lon": 28.885, "St_UA": "Білопілля" }, "geometry": { "type": "Point", "coordinates": [ 28.885, 49.84 ] } },
{ "type": "Feature", "properties": { "station": "Bilovodsk", "lat": 49.194, "lon": 39.55, "St_UA": "Біловодськ" }, "geometry": { "type": "Point", "coordinates": [ 39.55, 49.194 ] } },
{ "type": "Feature", "properties": { "station": "Bobrynets", "lat": 48.069, "lon": 32.167, "St_UA": "Бобринець" }, "geometry": { "type": "Point", "coordinates": [ 32.167, 48.069 ] } },
{ "type": "Feature", "properties": { "station": "Bogodukhiv", "lat": 50.165, "lon": 35.498, "St_UA": "Богодухів" }, "geometry": { "type": "Point", "coordinates": [ 35.498, 50.165 ] } },
{ "type": "Feature", "properties": { "station": "Bolgrad", "lat": 45.683, "lon": 28.626, "St_UA": "Болград" }, "geometry": { "type": "Point", "coordinates": [ 28.626, 45.683 ] } },
{ "type": "Feature", "properties": { "station": "Boryspil", "lat": 50.334, "lon": 30.949, "St_UA": "Бориспіль" }, "geometry": { "type": "Point", "coordinates": [ 30.949, 50.334 ] } },
{ "type": "Feature", "properties": { "station": "Botieve", "lat": 46.683, "lon": 35.843, "St_UA": "Ботієве" }, "geometry": { "type": "Point", "coordinates": [ 35.843, 46.683 ] } },
{ "type": "Feature", "properties": { "station": "Brody", "lat": 50.08, "lon": 25.16, "St_UA": "Броди" }, "geometry": { "type": "Point", "coordinates": [ 25.16, 50.08 ] } },
{ "type": "Feature", "properties": { "station": "Chaplyne", "lat": 48.144, "lon": 36.238, "St_UA": "Чаплине" }, "geometry": { "type": "Point", "coordinates": [ 36.238, 48.144 ] } },
{ "type": "Feature", "properties": { "station": "Cherkasy_AMSG", "lat": 49.409, "lon": 32.003, "St_UA": "Черкаси (АМСГ)" }, "geometry": { "type": "Point", "coordinates": [ 32.003, 49.409 ] } },
{ "type": "Feature", "properties": { "station": "Chernigiv_AMSG", "lat": 51.407, "lon": 31.154, "St_UA": "Чернігів (АМСГ)" }, "geometry": { "type": "Point", "coordinates": [ 31.154, 51.407 ] } },
{ "type": "Feature", "properties": { "station": "Chernivtsi_AMSG", "lat": 48.266, "lon": 25.972, "St_UA": "Чернівці (АМСГ)" }, "geometry": { "type": "Point", "coordinates": [ 25.972, 48.266 ] } },
{ "type": "Feature", "properties": { "station": "Chornobyl", "lat": 51.266, "lon": 30.226, "St_UA": "Чорнобиль" }, "geometry": { "type": "Point", "coordinates": [ 30.226, 51.266 ] } },
{ "type": "Feature", "properties": { "station": "Chornomorske", "lat": 45.522, "lon": 32.716, "St_UA": "Чорноморське" }, "geometry": { "type": "Point", "coordinates": [ 32.716, 45.522 ] } },
{ "type": "Feature", "properties": { "station": "Chortkiv", "lat": 49.017, "lon": 25.767, "St_UA": "Чортків" }, "geometry": { "type": "Point", "coordinates": [ 25.767, 49.017 ] } },
{ "type": "Feature", "properties": { "station": "Chygyryn", "lat": 49.059, "lon": 32.682, "St_UA": "Чигирин" }, "geometry": { "type": "Point", "coordinates": [ 32.682, 49.059 ] } },
{ "type": "Feature", "properties": { "station": "Dariivka", "lat": 48.071, "lon": 39.475, "St_UA": "Дар'ївка" }, "geometry": { "type": "Point", "coordinates": [ 39.475, 48.071 ] } },
{ "type": "Feature", "properties": { "station": "Debaltseve", "lat": 48.36, "lon": 38.436, "St_UA": "Дебальцеве" }, "geometry": { "type": "Point", "coordinates": [ 38.436, 48.36 ] } },
{ "type": "Feature", "properties": { "station": "Dnipro_AMSG", "lat": 48.36, "lon": 35.085, "St_UA": "Дніпро (АМСГ)" }, "geometry": { "type": "Point", "coordinates": [ 35.085, 48.36 ] } },
{ "type": "Feature", "properties": { "station": "Dolyna", "lat": 48.977, "lon": 23.998, "St_UA": "Долина" }, "geometry": { "type": "Point", "coordinates": [ 23.998, 48.977 ] } },
{ "type": "Feature", "properties": { "station": "Dolynska", "lat": 48.1044, "lon": 32.7505, "St_UA": "Долинська" }, "geometry": { "type": "Point", "coordinates": [ 32.7505, 48.1044 ] } },
{ "type": "Feature", "properties": { "station": "Donetsk_AMSG", "lat": 48.072, "lon": 37.726, "St_UA": "Донецьк (АМСГ)" }, "geometry": { "type": "Point", "coordinates": [ 37.726, 48.072 ] } },
{ "type": "Feature", "properties": { "station": "Drogobych_AMSG", "lat": 49.36, "lon": 23.57, "St_UA": "Дрогобич (АМСГ)" }, "geometry": { "type": "Point", "coordinates": [ 23.57, 49.36 ] } },
{ "type": "Feature", "properties": { "station": "Druzhba", "lat": 52.053, "lon": 33.954, "St_UA": "Дружба" }, "geometry": { "type": "Point", "coordinates": [ 33.954, 52.053 ] } },
{ "type": "Feature", "properties": { "station": "Dubno", "lat": 50.41, "lon": 25.76, "St_UA": "Дубно" }, "geometry": { "type": "Point", "coordinates": [ 25.76, 50.41 ] } },
{ "type": "Feature", "properties": { "station": "Dzhankoy", "lat": 45.704, "lon": 34.4, "St_UA": "Джанкой" }, "geometry": { "type": "Point", "coordinates": [ 34.4, 45.704 ] } },
{ "type": "Feature", "properties": { "station": "Evpatoriya_port", "lat": 45.19, "lon": 33.374, "St_UA": "Євпаторія (порт)" }, "geometry": { "type": "Point", "coordinates": [ 33.374, 45.19 ] } },
{ "type": "Feature", "properties": { "station": "Fastiv", "lat": 50.069, "lon": 29.927, "St_UA": "Фастів" }, "geometry": { "type": "Point", "coordinates": [ 29.927, 50.069 ] } },
{ "type": "Feature", "properties": { "station": "Feodosiya", "lat": 45.037, "lon": 35.382, "St_UA": "Феодосія" }, "geometry": { "type": "Point", "coordinates": [ 35.382, 45.037 ] } },
{ "type": "Feature", "properties": { "station": "Gadyach", "lat": 50.369, "lon": 33.98, "St_UA": "Гадяч" }, "geometry": { "type": "Point", "coordinates": [ 33.98, 50.369 ] } },
{ "type": "Feature", "properties": { "station": "Gaysyn", "lat": 48.8, "lon": 29.396, "St_UA": "Гайсин" }, "geometry": { "type": "Point", "coordinates": [ 29.396, 48.8 ] } },
{ "type": "Feature", "properties": { "station": "Gayvoron", "lat": 48.345, "lon": 29.845, "St_UA": "Гайворон" }, "geometry": { "type": "Point", "coordinates": [ 29.845, 48.345 ] } },
{ "type": "Feature", "properties": { "station": "Genichesk", "lat": 46.164, "lon": 34.807, "St_UA": "Генічеськ" }, "geometry": { "type": "Point", "coordinates": [ 34.807, 46.164 ] } },
{ "type": "Feature", "properties": { "station": "Glukhiv", "lat": 51.655, "lon": 33.966, "St_UA": "Глухів" }, "geometry": { "type": "Point", "coordinates": [ 33.966, 51.655 ] } },
{ "type": "Feature", "properties": { "station": "Gubynykha", "lat": 48.792, "lon": 35.248, "St_UA": "Губиниха" }, "geometry": { "type": "Point", "coordinates": [ 35.248, 48.792 ] } },
{ "type": "Feature", "properties": { "station": "Gulyaypole", "lat": 47.65, "lon": 36.268, "St_UA": "Гуляйполе" }, "geometry": { "type": "Point", "coordinates": [ 36.268, 47.65 ] } },
{ "type": "Feature", "properties": { "station": "Ishun", "lat": 45.927, "lon": 33.816, "St_UA": "Ішунь" }, "geometry": { "type": "Point", "coordinates": [ 33.816, 45.927 ] } },
{ "type": "Feature", "properties": { "station": "Ivano-Frankivsk_AMSG", "lat": 48.889, "lon": 24.689, "St_UA": "Івано-Франківськ (АМСГ)" }, "geometry": { "type": "Point", "coordinates": [ 24.689, 48.889 ] } },
{ "type": "Feature", "properties": { "station": "Izmail_observ", "lat": 45.37, "lon": 28.851, "St_UA": "Ізмаїл" }, "geometry": { "type": "Point", "coordinates": [ 28.851, 45.37 ] } },
{ "type": "Feature", "properties": { "station": "Izyum", "lat": 49.188, "lon": 37.29, "St_UA": "Ізюм" }, "geometry": { "type": "Point", "coordinates": [ 37.29, 49.188 ] } },
{ "type": "Feature", "properties": { "station": "Kamyanets-Podilsky", "lat": 48.693, "lon": 26.609, "St_UA": "Кам'янець-Подільський" }, "geometry": { "type": "Point", "coordinates": [ 26.609, 48.693 ] } },
{ "type": "Feature", "properties": { "station": "Kamyanka-Buzka", "lat": 50.11, "lon": 24.34, "St_UA": "Кам'янка-Бузька" }, "geometry": { "type": "Point", "coordinates": [ 24.34, 50.11 ] } },
{ "type": "Feature", "properties": { "station": "Kerch", "lat": 45.374, "lon": 36.415, "St_UA": "Керч" }, "geometry": { "type": "Point", "coordinates": [ 36.415, 45.374 ] } },
{ "type": "Feature", "properties": { "station": "Kharkiv_AMSG", "lat": 49.928, "lon": 36.282, "St_UA": "Харків (АМСГ)" }, "geometry": { "type": "Point", "coordinates": [ 36.282, 49.928 ] } },
{ "type": "Feature", "properties": { "station": "Kherson", "lat": 46.738, "lon": 32.708, "St_UA": "Херсон" }, "geometry": { "type": "Point", "coordinates": [ 32.708, 46.738 ] } },
{ "type": "Feature", "properties": { "station": "Khersones_mayak", "lat": 44.583, "lon": 33.382, "St_UA": "Херсонес" }, "geometry": { "type": "Point", "coordinates": [ 33.382, 44.583 ] } },
{ "type": "Feature", "properties": { "station": "Khmelnytsky_AMSG", "lat": 49.354, "lon": 26.938, "St_UA": "Хмельницький (АМСГ)" }, "geometry": { "type": "Point", "coordinates": [ 26.938, 49.354 ] } },
{ "type": "Feature", "properties": { "station": "Khmilnyk", "lat": 49.568, "lon": 27.948, "St_UA": "Хмільник" }, "geometry": { "type": "Point", "coordinates": [ 27.948, 49.568 ] } },
{ "type": "Feature", "properties": { "station": "Khorly", "lat": 46.076, "lon": 33.299, "St_UA": "Хорли" }, "geometry": { "type": "Point", "coordinates": [ 33.299, 46.076 ] } },
{ "type": "Feature", "properties": { "station": "Khust", "lat": 48.179, "lon": 23.292, "St_UA": "Хуст" }, "geometry": { "type": "Point", "coordinates": [ 23.292, 48.179 ] } },
{ "type": "Feature", "properties": { "station": "Kropyvnytskyi_AMSG", "lat": 48.544, "lon": 32.283, "St_UA": "Кропивницький (АМСГ)" }, "geometry": { "type": "Point", "coordinates": [ 32.283, 48.544 ] } },
{ "type": "Feature", "properties": { "station": "Klepinine", "lat": 45.529, "lon": 34.182, "St_UA": "Клепиніне" }, "geometry": { "type": "Point", "coordinates": [ 34.182, 45.529 ] } },
{ "type": "Feature", "properties": { "station": "Kobelyaky", "lat": 49.154, "lon": 34.208, "St_UA": "Кобеляки" }, "geometry": { "type": "Point", "coordinates": [ 34.208, 49.154 ] } },
{ "type": "Feature", "properties": { "station": "Kolomak", "lat": 49.85, "lon": 35.233, "St_UA": "Коломак" }, "geometry": { "type": "Point", "coordinates": [ 35.233, 49.85 ] } },
{ "type": "Feature", "properties": { "station": "Kolomyya", "lat": 48.549, "lon": 25.056, "St_UA": "Коломия" }, "geometry": { "type": "Point", "coordinates": [ 25.056, 48.549 ] } },
{ "type": "Feature", "properties": { "station": "Komisarivka", "lat": 48.44, "lon": 33.901, "St_UA": "Комісарівка" }, "geometry": { "type": "Point", "coordinates": [ 33.901, 48.44 ] } },
{ "type": "Feature", "properties": { "station": "Komsomolske", "lat": 49.593, "lon": 36.523, "St_UA": "Комсомольське" }, "geometry": { "type": "Point", "coordinates": [ 36.523, 49.593 ] } },
{ "type": "Feature", "properties": { "station": "Konotop", "lat": 51.241, "lon": 33.187, "St_UA": "Конотоп" }, "geometry": { "type": "Point", "coordinates": [ 33.187, 51.241 ] } },
{ "type": "Feature", "properties": { "station": "Korosten", "lat": 50.95, "lon": 28.614, "St_UA": "Коростень" }, "geometry": { "type": "Point", "coordinates": [ 28.614, 50.95 ] } },
{ "type": "Feature", "properties": { "station": "Kovel", "lat": 51.2, "lon": 24.71, "St_UA": "Ковель" }, "geometry": { "type": "Point", "coordinates": [ 24.71, 51.2 ] } },
{ "type": "Feature", "properties": { "station": "Pokrovsk", "lat": 48.294, "lon": 37.155, "St_UA": "Покровськ" }, "geometry": { "type": "Point", "coordinates": [ 37.155, 48.294 ] } },
{ "type": "Feature", "properties": { "station": "Krasnograd", "lat": 49.361, "lon": 35.415, "St_UA": "Красноград" }, "geometry": { "type": "Point", "coordinates": [ 35.415, 49.361 ] } },
{ "type": "Feature", "properties": { "station": "Kremenets", "lat": 50.133, "lon": 25.733, "St_UA": "Кременець" }, "geometry": { "type": "Point", "coordinates": [ 25.733, 50.133 ] } },
{ "type": "Feature", "properties": { "station": "Kryvyi_Rih_AMSG", "lat": 48.053, "lon": 33.211, "St_UA": "Кривий Ріг (АМСГ)" }, "geometry": { "type": "Point", "coordinates": [ 33.211, 48.053 ] } },
{ "type": "Feature", "properties": { "station": "Kupyansk", "lat": 49.65, "lon": 37.649, "St_UA": "Куп'янськ" }, "geometry": { "type": "Point", "coordinates": [ 37.649, 49.65 ] } },
{ "type": "Feature", "properties": { "station": "Kyiv", "lat": 50.392, "lon": 30.536, "St_UA": "Київ" }, "geometry": { "type": "Point", "coordinates": [ 30.536, 50.392 ] } },
{ "type": "Feature", "properties": { "station": "Kyrylivka", "lat": 47.33, "lon": 36.334, "St_UA": "Кирилівка" }, "geometry": { "type": "Point", "coordinates": [ 36.334, 47.33 ] } },
{ "type": "Feature", "properties": { "station": "Lebedyn", "lat": 50.587, "lon": 34.513, "St_UA": "Лебедин" }, "geometry": { "type": "Point", "coordinates": [ 34.513, 50.587 ] } },
{ "type": "Feature", "properties": { "station": "Loshkarivka", "lat": 47.971, "lon": 34.173, "St_UA": "Лошкарівка" }, "geometry": { "type": "Point", "coordinates": [ 34.173, 47.971 ] } },
{ "type": "Feature", "properties": { "station": "Lozova", "lat": 48.887, "lon": 36.344, "St_UA": "Лозова" }, "geometry": { "type": "Point", "coordinates": [ 36.344, 48.887 ] } },
{ "type": "Feature", "properties": { "station": "Lubeshiv", "lat": 51.77, "lon": 25.51, "St_UA": "Любешів" }, "geometry": { "type": "Point", "coordinates": [ 25.51, 51.77 ] } },
{ "type": "Feature", "properties": { "station": "Lubny", "lat": 50.016, "lon": 32.986, "St_UA": "Лубни" }, "geometry": { "type": "Point", "coordinates": [ 32.986, 50.016 ] } },
{ "type": "Feature", "properties": { "station": "Lugansk_CGM", "lat": 48.566, "lon": 39.234, "St_UA": "Луганськ" }, "geometry": { "type": "Point", "coordinates": [ 39.234, 48.566 ] } },
{ "type": "Feature", "properties": { "station": "Lutsk", "lat": 50.72, "lon": 25.4, "St_UA": "Луцьк" }, "geometry": { "type": "Point", "coordinates": [ 25.4, 50.72 ] } },
{ "type": "Feature", "properties": { "station": "Lviv_AMSG", "lat": 49.81, "lon": 23.97, "St_UA": "Львів (АМСГ)" }, "geometry": { "type": "Point", "coordinates": [ 23.97, 49.81 ] } },
{ "type": "Feature", "properties": { "station": "Lyubashivka", "lat": 47.851, "lon": 30.269, "St_UA": "Любашівка" }, "geometry": { "type": "Point", "coordinates": [ 30.269, 47.851 ] } },
{ "type": "Feature", "properties": { "station": "Manevychi", "lat": 51.284, "lon": 25.519, "St_UA": "Маневичі" }, "geometry": { "type": "Point", "coordinates": [ 25.519, 51.284 ] } },
{ "type": "Feature", "properties": { "station": "Mariupol", "lat": 47.042, "lon": 37.484, "St_UA": "Маріуполь" }, "geometry": { "type": "Point", "coordinates": [ 37.484, 47.042 ] } },
{ "type": "Feature", "properties": { "station": "Melitopol", "lat": 46.83, "lon": 35.356, "St_UA": "Мелітополь" }, "geometry": { "type": "Point", "coordinates": [ 35.356, 46.83 ] } },
{ "type": "Feature", "properties": { "station": "Mizhhir'ya", "lat": 48.527, "lon": 23.504, "St_UA": "Міжгір'я" }, "geometry": { "type": "Point", "coordinates": [ 23.504, 48.527 ] } },
{ "type": "Feature", "properties": { "station": "Mogyliv-Podilsky", "lat": 48.452, "lon": 27.78, "St_UA": "Могилів-Подільський" }, "geometry": { "type": "Point", "coordinates": [ 27.78, 48.452 ] } },
{ "type": "Feature", "properties": { "station": "Mostyska", "lat": 49.79, "lon": 23.16, "St_UA": "Мостиська" }, "geometry": { "type": "Point", "coordinates": [ 23.16, 49.79 ] } },
{ "type": "Feature", "properties": { "station": "Mykolaiv_AMSG", "lat": 47.054, "lon": 31.909, "St_UA": "Миколаїв (АМСГ)" }, "geometry": { "type": "Point", "coordinates": [ 31.909, 47.054 ] } },
{ "type": "Feature", "properties": { "station": "Myronivka", "lat": 49.646, "lon": 31.082, "St_UA": "Миронівка" }, "geometry": { "type": "Point", "coordinates": [ 31.082, 49.646 ] } },
{ "type": "Feature", "properties": { "station": "Mysove", "lat": 45.45, "lon": 35.823, "St_UA": "Мисове" }, "geometry": { "type": "Point", "coordinates": [ 35.823, 45.45 ] } },
{ "type": "Feature", "properties": { "station": "Nikitsky_Sad", "lat": 44.513, "lon": 34.24, "St_UA": "Нікітський Сад" }, "geometry": { "type": "Point", "coordinates": [ 34.24, 44.513 ] } },
{ "type": "Feature", "properties": { "station": "Nikopol", "lat": 47.592, "lon": 34.402, "St_UA": "Нікополь" }, "geometry": { "type": "Point", "coordinates": [ 34.402, 47.592 ] } },
{ "type": "Feature", "properties": { "station": "Nizhyn", "lat": 51.033, "lon": 31.9, "St_UA": "Ніжин" }, "geometry": { "type": "Point", "coordinates": [ 31.9, 51.033 ] } },
{ "type": "Feature", "properties": { "station": "Nova_Kakhovka", "lat": 46.789, "lon": 33.359, "St_UA": "Нова Каховка" }, "geometry": { "type": "Point", "coordinates": [ 33.359, 46.789 ] } },
{ "type": "Feature", "properties": { "station": "Nova_Ushytsya", "lat": 48.843, "lon": 27.261, "St_UA": "Нова Ушиця" }, "geometry": { "type": "Point", "coordinates": [ 27.261, 48.843 ] } },
{ "type": "Feature", "properties": { "station": "Novograd-Volynsky", "lat": 50.593, "lon": 27.61, "St_UA": "Новоград-Волинський" }, "geometry": { "type": "Point", "coordinates": [ 27.61, 50.593 ] } },
{ "type": "Feature", "properties": { "station": "Novomyrgorod", "lat": 48.826, "lon": 31.649, "St_UA": "Новомиргород" }, "geometry": { "type": "Point", "coordinates": [ 31.649, 48.826 ] } },
{ "type": "Feature", "properties": { "station": "Nyzhni_Sirogozy", "lat": 46.855, "lon": 34.397, "St_UA": "Нижні Сирогози" }, "geometry": { "type": "Point", "coordinates": [ 34.397, 46.855 ] } },
{ "type": "Feature", "properties": { "station": "Nyzhni_Vorota", "lat": 48.767, "lon": 23.1, "St_UA": "Нижні Ворота" }, "geometry": { "type": "Point", "coordinates": [ 23.1, 48.767 ] } },
{ "type": "Feature", "properties": { "station": "Nyzhniy_Studeny", "lat": 48.701, "lon": 23.366, "St_UA": "Нижній Студений" }, "geometry": { "type": "Point", "coordinates": [ 23.366, 48.701 ] } },
{ "type": "Feature", "properties": { "station": "Nyzhnogirsky", "lat": 45.447, "lon": 34.71, "St_UA": "Нижньогірський" }, "geometry": { "type": "Point", "coordinates": [ 34.71, 45.447 ] } },
{ "type": "Feature", "properties": { "station": "Ochakiv", "lat": 46.624, "lon": 31.539, "St_UA": "Очаків" }, "geometry": { "type": "Point", "coordinates": [ 31.539, 46.624 ] } },
{ "type": "Feature", "properties": { "station": "Odesa_observ", "lat": 46.441, "lon": 30.77, "St_UA": "Одеса" }, "geometry": { "type": "Point", "coordinates": [ 30.77, 46.441 ] } },
{ "type": "Feature", "properties": { "station": "Olevsk", "lat": 51.217, "lon": 27.633, "St_UA": "Олевськ" }, "geometry": { "type": "Point", "coordinates": [ 27.633, 51.217 ] } },
{ "type": "Feature", "properties": { "station": "Opasne", "lat": 45.367, "lon": 36.633, "St_UA": "Опасне" }, "geometry": { "type": "Point", "coordinates": [ 36.633, 45.367 ] } },
{ "type": "Feature", "properties": { "station": "Oster", "lat": 50.956, "lon": 30.9, "St_UA": "Остер" }, "geometry": { "type": "Point", "coordinates": [ 30.9, 50.956 ] } },
{ "type": "Feature", "properties": { "station": "Ovruch", "lat": 51.329, "lon": 28.784, "St_UA": "Овруч" }, "geometry": { "type": "Point", "coordinates": [ 28.784, 51.329 ] } },
{ "type": "Feature", "properties": { "station": "Pavlograd", "lat": 48.553, "lon": 35.888, "St_UA": "Павлоград" }, "geometry": { "type": "Point", "coordinates": [ 35.888, 48.553 ] } },
{ "type": "Feature", "properties": { "station": "Pervomaysk", "lat": 48.052, "lon": 30.858, "St_UA": "Первомайськ" }, "geometry": { "type": "Point", "coordinates": [ 30.858, 48.052 ] } },
{ "type": "Feature", "properties": { "station": "Pokoshychi", "lat": 51.766, "lon": 32.96, "St_UA": "Покошичі" }, "geometry": { "type": "Point", "coordinates": [ 32.96, 51.766 ] } },
{ "type": "Feature", "properties": { "station": "Poltava_CGM", "lat": 49.609, "lon": 34.545, "St_UA": "Полтава" }, "geometry": { "type": "Point", "coordinates": [ 34.545, 49.609 ] } },
{ "type": "Feature", "properties": { "station": "Pomichna", "lat": 48.232, "lon": 31.396, "St_UA": "Помічна" }, "geometry": { "type": "Point", "coordinates": [ 31.396, 48.232 ] } },
{ "type": "Feature", "properties": { "station": "Poshtove", "lat": 44.833, "lon": 33.944, "St_UA": "Поштове" }, "geometry": { "type": "Point", "coordinates": [ 33.944, 44.833 ] } },
{ "type": "Feature", "properties": { "station": "Pozhyzhevska", "lat": 48.154, "lon": 24.534, "St_UA": "Пожижевська" }, "geometry": { "type": "Point", "coordinates": [ 24.534, 48.154 ] } },
{ "type": "Feature", "properties": { "station": "Pryluky", "lat": 50.579, "lon": 32.364, "St_UA": "Прилуки" }, "geometry": { "type": "Point", "coordinates": [ 32.364, 50.579 ] } },
{ "type": "Feature", "properties": { "station": "Pryshyb", "lat": 47.261, "lon": 35.333, "St_UA": "Пришиб" }, "geometry": { "type": "Point", "coordinates": [ 35.333, 47.261 ] } },
{ "type": "Feature", "properties": { "station": "Rakhiv", "lat": 48.047, "lon": 24.198, "St_UA": "Рахів" }, "geometry": { "type": "Point", "coordinates": [ 24.198, 48.047 ] } },
{ "type": "Feature", "properties": { "station": "Rava-Ruska", "lat": 50.24, "lon": 23.63, "St_UA": "Рава Руська" }, "geometry": { "type": "Point", "coordinates": [ 23.63, 50.24 ] } },
{ "type": "Feature", "properties": { "station": "Rivne_AMSG", "lat": 50.6, "lon": 26.15, "St_UA": "Рівне (АМСГ)" }, "geometry": { "type": "Point", "coordinates": [ 26.15, 50.6 ] } },
{ "type": "Feature", "properties": { "station": "Romny", "lat": 50.768, "lon": 33.443, "St_UA": "Ромни" }, "geometry": { "type": "Point", "coordinates": [ 33.443, 50.768 ] } },
{ "type": "Feature", "properties": { "station": "Rozdilna", "lat": 46.85, "lon": 30.071, "St_UA": "Роздільна" }, "geometry": { "type": "Point", "coordinates": [ 30.071, 46.85 ] } },
{ "type": "Feature", "properties": { "station": "Sarata", "lat": 46.024, "lon": 29.67, "St_UA": "Сарата" }, "geometry": { "type": "Point", "coordinates": [ 29.67, 46.024 ] } },
{ "type": "Feature", "properties": { "station": "Sarny", "lat": 51.31, "lon": 26.61, "St_UA": "Сарни" }, "geometry": { "type": "Point", "coordinates": [ 26.61, 51.31 ] } },
{ "type": "Feature", "properties": { "station": "Selyatyn", "lat": 47.883, "lon": 25.217, "St_UA": "Селятин" }, "geometry": { "type": "Point", "coordinates": [ 25.217, 47.883 ] } },
{ "type": "Feature", "properties": { "station": "Semenivka", "lat": 52.191, "lon": 32.574, "St_UA": "Семенівка" }, "geometry": { "type": "Point", "coordinates": [ 32.574, 52.191 ] } },
{ "type": "Feature", "properties": { "station": "Serbka", "lat": 47.013, "lon": 30.752, "St_UA": "Сербка" }, "geometry": { "type": "Point", "coordinates": [ 30.752, 47.013 ] } },
{ "type": "Feature", "properties": { "station": "Sevastopol", "lat": 44.617, "lon": 33.532, "St_UA": "Севастополь" }, "geometry": { "type": "Point", "coordinates": [ 33.532, 44.617 ] } },
{ "type": "Feature", "properties": { "station": "Snovsk", "lat": 51.8, "lon": 31.967, "St_UA": "Сновськ" }, "geometry": { "type": "Point", "coordinates": [ 31.967, 51.8 ] } },
{ "type": "Feature", "properties": { "station": "Shepetivka", "lat": 50.162, "lon": 27.04, "St_UA": "Шепетівка" }, "geometry": { "type": "Point", "coordinates": [ 27.04, 50.162 ] } },
{ "type": "Feature", "properties": { "station": "Simferopol_AMSG", "lat": 45.04, "lon": 33.967, "St_UA": "Сімферополь (АМСГ)" }, "geometry": { "type": "Point", "coordinates": [ 33.967, 45.04 ] } },
{ "type": "Feature", "properties": { "station": "Slavske", "lat": 48.85, "lon": 23.45, "St_UA": "Славське" }, "geometry": { "type": "Point", "coordinates": [ 23.45, 48.85 ] } },
{ "type": "Feature", "properties": { "station": "Smila", "lat": 49.184, "lon": 31.865, "St_UA": "Сміла" }, "geometry": { "type": "Point", "coordinates": [ 31.865, 49.184 ] } },
{ "type": "Feature", "properties": { "station": "Strilkove", "lat": 45.901, "lon": 34.878, "St_UA": "Стрілкове" }, "geometry": { "type": "Point", "coordinates": [ 34.878, 45.901 ] } },
{ "type": "Feature", "properties": { "station": "Stry", "lat": 49.26, "lon": 23.81, "St_UA": "Стрий" }, "geometry": { "type": "Point", "coordinates": [ 23.81, 49.26 ] } },
{ "type": "Feature", "properties": { "station": "Sumy_AMSG", "lat": 50.859, "lon": 34.749, "St_UA": "Суми (АМСГ)" }, "geometry": { "type": "Point", "coordinates": [ 34.749, 50.859 ] } },
{ "type": "Feature", "properties": { "station": "Svatove", "lat": 49.412, "lon": 38.163, "St_UA": "Сватове" }, "geometry": { "type": "Point", "coordinates": [ 38.163, 49.412 ] } },
{ "type": "Feature", "properties": { "station": "Svitlovodsk", "lat": 49.0712, "lon": 33.2494, "St_UA": "Світловодськ" }, "geometry": { "type": "Point", "coordinates": [ 33.2494, 49.0712 ] } },
{ "type": "Feature", "properties": { "station": "Svityaz", "lat": 51.48, "lon": 23.85, "St_UA": "Світязь" }, "geometry": { "type": "Point", "coordinates": [ 23.85, 51.48 ] } },
{ "type": "Feature", "properties": { "station": "Synelnykove", "lat": 48.351, "lon": 35.442, "St_UA": "Синельникове" }, "geometry": { "type": "Point", "coordinates": [ 35.442, 48.351 ] } },
{ "type": "Feature", "properties": { "station": "Ternopil_AMSG", "lat": 49.528, "lon": 25.691, "St_UA": "Тернопіль (АМСГ)" }, "geometry": { "type": "Point", "coordinates": [ 25.691, 49.528 ] } },
{ "type": "Feature", "properties": { "station": "Teteriv", "lat": 50.693, "lon": 29.583, "St_UA": "Тетерів" }, "geometry": { "type": "Point", "coordinates": [ 29.583, 50.693 ] } },
{ "type": "Feature", "properties": { "station": "Turka", "lat": 49.15, "lon": 23.03, "St_UA": "Турка" }, "geometry": { "type": "Point", "coordinates": [ 23.03, 49.15 ] } },
{ "type": "Feature", "properties": { "station": "Uman", "lat": 48.767, "lon": 30.233, "St_UA": "Умань" }, "geometry": { "type": "Point", "coordinates": [ 30.233, 48.767 ] } },
{ "type": "Feature", "properties": { "station": "Uzhgorod_AMSG", "lat": 48.633, "lon": 22.261, "St_UA": "Ужгород (АМСГ)" }, "geometry": { "type": "Point", "coordinates": [ 22.261, 48.633 ] } },
{ "type": "Feature", "properties": { "station": "Velyka_Oleksandrivka", "lat": 47.317, "lon": 33.288, "St_UA": "Велика Олександрівка" }, "geometry": { "type": "Point", "coordinates": [ 33.288, 47.317 ] } },
{ "type": "Feature", "properties": { "station": "Velyky_Berezny", "lat": 48.892, "lon": 22.453, "St_UA": "Великий Березний" }, "geometry": { "type": "Point", "coordinates": [ 22.453, 48.892 ] } },
{ "type": "Feature", "properties": { "station": "Velyky_Burluk", "lat": 50.0782, "lon": 37.3848, "St_UA": "Великий Бурлук" }, "geometry": { "type": "Point", "coordinates": [ 37.3848, 50.0782 ] } },
{ "type": "Feature", "properties": { "station": "Vesely_Podil", "lat": 49.615, "lon": 33.252, "St_UA": "Веселий Поділ" }, "geometry": { "type": "Point", "coordinates": [ 33.252, 49.615 ] } },
{ "type": "Feature", "properties": { "station": "Vinnytsya_AMSG", "lat": 49.233, "lon": 28.583, "St_UA": "Вінниця (АМСГ)" }, "geometry": { "type": "Point", "coordinates": [ 28.583, 49.233 ] } },
{ "type": "Feature", "properties": { "station": "Vladyslavivka", "lat": 45.171, "lon": 35.38, "St_UA": "Владиславівка" }, "geometry": { "type": "Point", "coordinates": [ 35.38, 45.171 ] } },
{ "type": "Feature", "properties": { "station": "Volnovakha", "lat": 47.615, "lon": 37.489, "St_UA": "Волноваха" }, "geometry": { "type": "Point", "coordinates": [ 37.489, 47.615 ] } },
{ "type": "Feature", "properties": { "station": "Volodymyr-Volynsky", "lat": 50.83, "lon": 24.34, "St_UA": "Володимир-Волинський" }, "geometry": { "type": "Point", "coordinates": [ 24.34, 50.83 ] } },
{ "type": "Feature", "properties": { "station": "Voznesensk", "lat": 47.583, "lon": 31.32, "St_UA": "Вознесенськ" }, "geometry": { "type": "Point", "coordinates": [ 31.32, 47.583 ] } },
{ "type": "Feature", "properties": { "station": "Vylkove", "lat": 45.394, "lon": 29.593, "St_UA": "Вилкове" }, "geometry": { "type": "Point", "coordinates": [ 29.593, 45.394 ] } },
{ "type": "Feature", "properties": { "station": "Yagotyn", "lat": 50.233, "lon": 31.8, "St_UA": "Яготин" }, "geometry": { "type": "Point", "coordinates": [ 31.8, 50.233 ] } },
{ "type": "Feature", "properties": { "station": "Yalta", "lat": 44.481, "lon": 34.155, "St_UA": "Ялта" }, "geometry": { "type": "Point", "coordinates": [ 34.155, 44.481 ] } },
{ "type": "Feature", "properties": { "station": "Yampil", "lat": 49.948, "lon": 26.205, "St_UA": "Ямпіль" }, "geometry": { "type": "Point", "coordinates": [ 26.205, 49.948 ] } },
{ "type": "Feature", "properties": { "station": "Yaremche", "lat": 48.453, "lon": 24.553, "St_UA": "Яремче" }, "geometry": { "type": "Point", "coordinates": [ 24.553, 48.453 ] } },
{ "type": "Feature", "properties": { "station": "Yavoriv", "lat": 49.95, "lon": 23.38, "St_UA": "Яворів" }, "geometry": { "type": "Point", "coordinates": [ 23.38, 49.95 ] } },
{ "type": "Feature", "properties": { "station": "Zaporizhzhya_CGM", "lat": 47.879, "lon": 35.083, "St_UA": "Запоріжжя" }, "geometry": { "type": "Point", "coordinates": [ 35.083, 47.879 ] } },
{ "type": "Feature", "properties": { "station": "Zatyshshya", "lat": 47.339, "lon": 29.877, "St_UA": "Затишшя" }, "geometry": { "type": "Point", "coordinates": [ 29.877, 47.339 ] } },
{ "type": "Feature", "properties": { "station": "Zhashkiv", "lat": 49.236, "lon": 30.114, "St_UA": "Жашків" }, "geometry": { "type": "Point", "coordinates": [ 30.114, 49.236 ] } },
{ "type": "Feature", "properties": { "station": "Zhmerynka", "lat": 49.017, "lon": 28.133, "St_UA": "Жмеринка" }, "geometry": { "type": "Point", "coordinates": [ 28.133, 49.017 ] } },
{ "type": "Feature", "properties": { "station": "Zhytomyr_AMSG", "lat": 50.277, "lon": 28.733, "St_UA": "Житомир (АМСГ)" }, "geometry": { "type": "Point", "coordinates": [ 28.733, 50.277 ] } },
{ "type": "Feature", "properties": { "station": "Znamyanka", "lat": 48.739, "lon": 32.691, "St_UA": "Знам'янка" }, "geometry": { "type": "Point", "coordinates": [ 32.691, 48.739 ] } },
{ "type": "Feature", "properties": { "station": "Zolochiv", "lat": 50.296, "lon": 35.962, "St_UA": "Золочів" }, "geometry": { "type": "Point", "coordinates": [ 35.962, 50.296 ] } },
{ "type": "Feature", "properties": { "station": "Zolotonosha", "lat": 49.667, "lon": 32.017, "St_UA": "Золотоноша" }, "geometry": { "type": "Point", "coordinates": [ 32.017, 49.667 ] } },
{ "type": "Feature", "properties": { "station": "Zvenygorodka", "lat": 49.083, "lon": 30.9, "St_UA": "Звенигородка" }, "geometry": { "type": "Point", "coordinates": [ 30.9, 49.083 ] } }
]
}
